{"type": "FeatureCollection", "features": [ {"type": "Feature", "properties": {"norad_id": 67038, "name": "STARLINK-35775", "group": "last-30-days", "lat": 1.1557123157464166, "lon": -37.12204476152716, "alt_km": 295.32991608793236, "timestamp": "2025-12-18T23:35:47.784379+00:00", "meta": {"OBJECT_NAME": "STARLINK-35775", "OBJECT_ID": "2025-294J", "EPOCH": "2025-12-17T20:00:01.999872", "MEAN_MOTION": 15.95418502, "ECCENTRICITY": 0.00018335, "INCLINATION": 43, "RA_OF_ASC_NODE": 151.2927, "ARG_OF_PERICENTER": 281.1029, "MEAN_ANOMALY": 130.8423, "EPHEMERIS_TYPE": 0, "CLASSIFICATION_TYPE": "U", "NORAD_CAT_ID": 67038, "ELEMENT_SET_NO": 999, "REV_AT_EPOCH": 217, "BSTAR": -0.0032079464, "MEAN_MOTION_DOT": -0.01320978, "MEAN_MOTION_DDOT": 0.00051991568}, "tle": {"line1": "1 67038U 25294J   25351.83335648 -.01320978  51992-3 -32079-2 0  9996", "line2": "2 67038  43.0000 151.2927 0001833 281.1029 130.8423 15.95418502  2179"}}, "geometry": {"type": "Point", "coordinates": [-37.12204476152716, 1.1557123157464166]}}, {"type": "Feature", "properties": {"norad_id": 67039, "name": "STARLINK-35705", "group": "last-30-days", "lat": -1.3290163174082652, "lon": -34.46396305494605, "alt_km": 295.0937627142239, "timestamp": "2025-12-18T23:35:47.784389+00:00", "meta": {"OBJECT_NAME": "STARLINK-35705", "OBJECT_ID": "2025-294K", "EPOCH": "2025-12-17T20:00:01.999872", "MEAN_MOTION": 15.95587537, "ECCENTRICITY": 0.00018051, "INCLINATION": 43, "RA_OF_ASC_NODE": 151.2852, "ARG_OF_PERICENTER": 279.6905, "MEAN_ANOMALY": 135.2574, "EPHEMERIS_TYPE": 0, "CLASSIFICATION_TYPE": "U", "NORAD_CAT_ID": 67039, "ELEMENT_SET_NO": 999, "REV_AT_EPOCH": 212, "BSTAR": -0.0032117408, "MEAN_MOTION_DOT": -0.01334562, "MEAN_MOTION_DDOT": 0.00053065197}, "tle": {"line1": "1 67039U 25294K   25351.83335648 -.01334562  53065-3 -32117-2 0  9997", "line2": "2 67039  43.0000 151.2852 0001805 279.6905 135.2574 15.95587537  2127"}}, "geometry": {"type": "Point", "coordinates": [-34.46396305494605, -1.3290163174082652]}}, {"type": "Feature", "properties": {"norad_id": 67040, "name": "STARLINK-35786", "group": "last-30-days", "lat": -0.15967023067131358, "lon": -35.714903471988734, "alt_km": 295.26790488752704, "timestamp": "2025-12-18T23:35:47.784401+00:00", "meta": {"OBJECT_NAME": "STARLINK-35786", "OBJECT_ID": "2025-294L", "EPOCH": "2025-12-17T20:00:01.999872", "MEAN_MOTION": 15.95507388, "ECCENTRICITY": 0.00018199, "INCLINATION": 43.0001, "RA_OF_ASC_NODE": 151.2888, "ARG_OF_PERICENTER": 282.0866, "MEAN_ANOMALY": 131.446, "EPHEMERIS_TYPE": 0, "CLASSIFICATION_TYPE": "U", "NORAD_CAT_ID": 67040, "ELEMENT_SET_NO": 999, "REV_AT_EPOCH": 212, "BSTAR": -0.0032076628, "MEAN_MOTION_DOT": -0.01327169, "MEAN_MOTION_DDOT": 0.00052485624}, "tle": {"line1": "1 67040U 25294L   25351.83335648 -.01327169  52486-3 -32077-2 0  9995", "line2": "2 67040  43.0001 151.2888 0001819 282.0866 131.4460 15.95507388  2126"}}, "geometry": {"type": "Point", "coordinates": [-35.714903471988734, -0.15967023067131358]}}, {"type": "Feature", "properties": {"norad_id": 67041, "name": "STARLINK-35765", "group": "last-30-days", "lat": -2.4428405220461427, "lon": -33.27076804678057, "alt_km": 294.9779129173867, "timestamp": "2025-12-18T23:35:47.784411+00:00", "meta": {"OBJECT_NAME": "STARLINK-35765", "OBJECT_ID": "2025-294M", "EPOCH": "2025-12-17T20:00:01.999872", "MEAN_MOTION": 15.9566267, "ECCENTRICITY": 0.00017795, "INCLINATION": 42.9999, "RA_OF_ASC_NODE": 151.2817, "ARG_OF_PERICENTER": 279.0482, "MEAN_ANOMALY": 137.2462, "EPHEMERIS_TYPE": 0, "CLASSIFICATION_TYPE": "U", "NORAD_CAT_ID": 67041, "ELEMENT_SET_NO": 999, "REV_AT_EPOCH": 212, "BSTAR": -0.003211781, "MEAN_MOTION_DOT": -0.01339969, "MEAN_MOTION_DDOT": 0.00053500249}, "tle": {"line1": "1 67041U 25294M   25351.83335648 -.01339969  53500-3 -32118-2 0  9991", "line2": "2 67041  42.9999 151.2817 0001779 279.0482 137.2462 15.95662670  2120"}}, "geometry": {"type": "Point", "coordinates": [-33.27076804678057, -2.4428405220461427]}}, {"type": "Feature", "properties": {"norad_id": 67042, "name": "STARLINK-35773", "group": "last-30-days", "lat": -3.6976542241687618, "lon": -31.922674159372768, "alt_km": 294.93349375548587, "timestamp": "2025-12-18T23:35:47.784424+00:00", "meta": {"OBJECT_NAME": "STARLINK-35773", "OBJECT_ID": "2025-294N", "EPOCH": "2025-12-17T20:00:01.999872", "MEAN_MOTION": 15.95746419, "ECCENTRICITY": 0.00017852, "INCLINATION": 43, "RA_OF_ASC_NODE": 151.2778, "ARG_OF_PERICENTER": 280.7702, "MEAN_ANOMALY": 137.0364, "EPHEMERIS_TYPE": 0, "CLASSIFICATION_TYPE": "U", "NORAD_CAT_ID": 67042, "ELEMENT_SET_NO": 999, "REV_AT_EPOCH": 212, "BSTAR": -0.0032062132, "MEAN_MOTION_DOT": -0.0134371, "MEAN_MOTION_DDOT": 0.00053819775}, "tle": {"line1": "1 67042U 25294N   25351.83335648 -.01343710  53820-3 -32062-2 0  9994", "line2": "2 67042  43.0000 151.2778 0001785 280.7702 137.0364 15.95746419  2126"}}, "geometry": {"type": "Point", "coordinates": [-31.922674159372768, -3.6976542241687618]}}, {"type": "Feature", "properties": {"norad_id": 67043, "name": "STARLINK-35901", "group": "last-30-days", "lat": -4.930906404258667, "lon": -30.59160218298042, "alt_km": 294.77292363404376, "timestamp": "2025-12-18T23:35:47.784434+00:00", "meta": {"OBJECT_NAME": "STARLINK-35901", "OBJECT_ID": "2025-294P", "EPOCH": "2025-12-17T20:00:01.999872", "MEAN_MOTION": 15.95831027, "ECCENTRICITY": 0.00018049, "INCLINATION": 43, "RA_OF_ASC_NODE": 151.2742, "ARG_OF_PERICENTER": 279.2897, "MEAN_ANOMALY": 140.009, "EPHEMERIS_TYPE": 0, "CLASSIFICATION_TYPE": "U", "NORAD_CAT_ID": 67043, "ELEMENT_SET_NO": 999, "REV_AT_EPOCH": 212, "BSTAR": -0.0032066812, "MEAN_MOTION_DOT": -0.01350043, "MEAN_MOTION_DDOT": 0.00054331829}, "tle": {"line1": "1 67043U 25294P   25351.83335648 -.01350043  54332-3 -32067-2 0  9996", "line2": "2 67043  43.0000 151.2742 0001804 279.2897 140.0090 15.95831027  2128"}}, "geometry": {"type": "Point", "coordinates": [-30.59160218298042, -4.930906404258667]}}, {"type": "Feature", "properties": {"norad_id": 67044, "name": "STARLINK-35884", "group": "last-30-days", "lat": -6.115194916447309, "lon": -29.30634656269888, "alt_km": 294.61239521178504, "timestamp": "2025-12-18T23:35:47.784444+00:00", "meta": {"OBJECT_NAME": "STARLINK-35884", "OBJECT_ID": "2025-294Q", "EPOCH": "2025-12-17T20:00:01.999872", "MEAN_MOTION": 15.95912018, "ECCENTRICITY": 0.00017484, "INCLINATION": 43.0002, "RA_OF_ASC_NODE": 151.2704, "ARG_OF_PERICENTER": 278.0882, "MEAN_ANOMALY": 142.6454, "EPHEMERIS_TYPE": 0, "CLASSIFICATION_TYPE": "U", "NORAD_CAT_ID": 67044, "ELEMENT_SET_NO": 999, "REV_AT_EPOCH": 212, "BSTAR": -0.0032062218, "MEAN_MOTION_DOT": -0.01355739, "MEAN_MOTION_DDOT": 0.00054797583}, "tle": {"line1": "1 67044U 25294Q   25351.83335648 -.01355739  54798-3 -32062-2 0  9995", "line2": "2 67044  43.0002 151.2704 0001748 278.0882 142.6454 15.95912018  2129"}}, "geometry": {"type": "Point", "coordinates": [-29.30634656269888, -6.115194916447309]}}, {"type": "Feature", "properties": {"norad_id": 67045, "name": "STARLINK-35891", "group": "last-30-days", "lat": -7.580573239823651, "lon": -27.702852843273853, "alt_km": 294.4336309486798, "timestamp": "2025-12-18T23:35:47.784454+00:00", "meta": {"OBJECT_NAME": "STARLINK-35891", "OBJECT_ID": "2025-294R", "EPOCH": "2025-12-17T20:00:01.999872", "MEAN_MOTION": 15.96018963, "ECCENTRICITY": 0.00017254, "INCLINATION": 43, "RA_OF_ASC_NODE": 151.266, "ARG_OF_PERICENTER": 276.7513, "MEAN_ANOMALY": 145.7613, "EPHEMERIS_TYPE": 0, "CLASSIFICATION_TYPE": "U", "NORAD_CAT_ID": 67045, "ELEMENT_SET_NO": 999, "REV_AT_EPOCH": 212, "BSTAR": -0.0032177095, "MEAN_MOTION_DOT": -0.01368403, "MEAN_MOTION_DDOT": 0.00055799687}, "tle": {"line1": "1 67045U 25294R   25351.83335648 -.01368403  55800-3 -32177-2 0  9990", "line2": "2 67045  43.0000 151.2660 0001725 276.7513 145.7613 15.96018963  2128"}}, "geometry": {"type": "Point", "coordinates": [-27.702852843273853, -7.580573239823651]}}, {"type": "Feature", "properties": {"norad_id": 67046, "name": "STARLINK-35721", "group": "last-30-days", "lat": -8.880504776404209, "lon": -26.266069888657313, "alt_km": 294.4065870269005, "timestamp": "2025-12-18T23:35:47.784464+00:00", "meta": {"OBJECT_NAME": "STARLINK-35721", "OBJECT_ID": "2025-294S", "EPOCH": "2025-12-17T20:00:01.999872", "MEAN_MOTION": 15.9610508, "ECCENTRICITY": 0.0001722, "INCLINATION": 43.0002, "RA_OF_ASC_NODE": 151.2619, "ARG_OF_PERICENTER": 279.7082, "MEAN_ANOMALY": 144.3833, "EPHEMERIS_TYPE": 0, "CLASSIFICATION_TYPE": "U", "NORAD_CAT_ID": 67046, "ELEMENT_SET_NO": 999, "REV_AT_EPOCH": 212, "BSTAR": -0.003205941, "MEAN_MOTION_DOT": -0.01369809, "MEAN_MOTION_DDOT": 0.00055953761}, "tle": {"line1": "1 67046U 25294S   25351.83335648 -.01369809  55954-3 -32059-2 0  9991", "line2": "2 67046  43.0002 151.2619 0001722 279.7082 144.3833 15.96105080  2122"}}, "geometry": {"type": "Point", "coordinates": [-26.266069888657313, -8.880504776404209]}}, {"type": "Feature", "properties": {"norad_id": 67047, "name": "STARLINK-35779", "group": "last-30-days", "lat": -10.335566003991046, "lon": -24.63753011829412, "alt_km": 294.23643679859015, "timestamp": "2025-12-18T23:35:47.784474+00:00", "meta": {"OBJECT_NAME": "STARLINK-35779", "OBJECT_ID": "2025-294T", "EPOCH": "2025-12-17T20:00:01.999872", "MEAN_MOTION": 15.96210119, "ECCENTRICITY": 0.00017908, "INCLINATION": 43.0001, "RA_OF_ASC_NODE": 151.2578, "ARG_OF_PERICENTER": 279.1169, "MEAN_ANOMALY": 146.7506, "EPHEMERIS_TYPE": 0, "CLASSIFICATION_TYPE": "U", "NORAD_CAT_ID": 67047, "ELEMENT_SET_NO": 999, "REV_AT_EPOCH": 212, "BSTAR": -0.0032092408, "MEAN_MOTION_DOT": -0.01379026, "MEAN_MOTION_DDOT": 0.00056706351}, "tle": {"line1": "1 67047U 25294T   25351.83335648 -.01379026  56706-3 -32092-2 0  9997", "line2": "2 67047  43.0001 151.2578 0001790 279.1169 146.7506 15.96210119  2124"}}, "geometry": {"type": "Point", "coordinates": [-24.63753011829412, -10.335566003991046]}}]}